[{"OBJECT_NAME":"STARLINK-35845","OBJECT_ID":"2025-254U","EPOCH":"2026-03-09T10:03:14.719104","MEAN_MOTION":15.30210065,"ECCENTRICITY":0.00015395,"INCLINATION":53.1574,"RA_OF_ASC_NODE":233.748,"ARG_OF_PERICENTER":86.413,"MEAN_ANOMALY":273.7047,"EPHEMERIS_TYPE":0,"CLASSIFICATION_TYPE":"U","NORAD_CAT_ID":66366,"ELEMENT_SET_NO":999,"REV_AT_EPOCH":1893,"BSTAR":0.00082833184,"MEAN_MOTION_DOT":0.00024261,"MEAN_MOTION_DDOT":0},{"OBJECT_NAME":"COSMOS 1782","OBJECT_ID":"1986-074A","EPOCH":"2026-03-09T22:40:22.374624","MEAN_MOTION":15.33314157,"ECCENTRICITY":0.00054418,"INCLINATION":82.5242,"RA_OF_ASC_NODE":238.1482,"ARG_OF_PERICENTER":197.7479,"MEAN_ANOMALY":162.3574,"EPHEMERIS_TYPE":0,"CLASSIFICATION_TYPE":"U","NORAD_CAT_ID":16986,"ELEMENT_SET_NO":999,"REV_AT_EPOCH":13134,"BSTAR":0.00042191031,"MEAN_MOTION_DOT":0.00013623,"MEAN_MOTION_DDOT":0}]
